%YAML 1.1
%TAG !u! tag:unity3d.com,2011:
--- !u!114 &11400000
MonoBehaviour:
  m_ObjectHideFlags: 0
  m_CorrespondingSourceObject: {fileID: 0}
  m_PrefabInstance: {fileID: 0}
  m_PrefabAsset: {fileID: 0}
  m_GameObject: {fileID: 0}
  m_Enabled: 1
  m_EditorHideFlags: 0
  m_Script: {fileID: 11500000, guid: 3c3c350472192c149822725a54cc75ed, type: 3}
  m_Name: Uranus
  m_EditorClassIdentifier: 
  mass: 8.681e+25
  diameter: 50724000
  orbit:
    semimajorAxis: 2870507138498
    eccentricity: 0.00859048
    inclination: 0.01348507406
    lonAscNode: 1.291839044
    argPeriapsis: 1.691875948
    trueAnomaly: 2.493742987
    meanAnomaly: 0
    anomaly: 0
    semiminorAxis: 0
    meanMotion: 0
    semiLatusRectum: 0
    timeToPeriapsis: 0
    period: 0
  material: {fileID: 2100000, guid: 14be4e785a8f2d347b814d0a0bb11f25, type: 2}
  bodiesOnOrbit: []
  type: 1
